141P-I/Machholz,e,13.9429,153.4495,241.9483,3.047100,0.1852994,0.73506127,357.1045,03/29.0/2026,2000,g 17.5,4.0
# From MPC191605
142P/Ge-Wang,e,12.2429,175.9631,174.0254,5.003483,0.0880634,0.49570087,157.0953,03/29.0/2026,2000,g  8.5,6.0
# From MPEC 2026-FC3
143P/Kowal-Mrkos,e,5.3948,242.0372,304.8450,4.752197,0.0951398,0.37777774,333.9197,03/29.0/2026,2000,g 13.5,2.0
# From MPC191605
144P/Kushida,e,3.9307,242.9230,216.3894,3.835063,0.1312337,0.63489376,104.0860,03/29.0/2026,2000,g  8.5,8.0
# From MPEC 2026-EC7
145P/Shoemaker-Levy,e,11.2782,26.7664,10.4246,4.129468,0.1174527,0.54238197,6.5839,03/29.0/2026,2000,g 13.5,4.0
# From MPC191606
146P/Shoemaker-LINEAR,e,23.1176,53.3157,317.0118,4.021424,0.1222177,0.64762175,73.4106,03/29.0/2026,2000,g 15.0,4.0
# From MPC191606
147P/Kushida-Muramatsu,e,2.3112,91.6666,348.6538,4.009636,0.1227571,0.21151211,103.4867,03/29.0/2026,2000,g 14.0,4.0
# From MPC191606
148P/Anderson-LINEAR,e,3.6585,89.1941,8.1022,3.620282,0.1430838,0.55035979,197.9341,03/29.0/2026,2000,g 16.0,2.0
# From MPC191606
149P/Mueller,e,34.2616,143.7003,30.0386,4.135693,0.1171876,0.32462969,329.3538,03/29.0/2026,2000,g  8.0,8.0
# From MPC191606
150P/LONEOS,e,18.5470,272.0533,246.1300,3.872332,0.1293437,0.54939312,96.5310,03/29.0/2026,2000,g 13.5,4.0
# From MPC191606
151P/Helin,e,4.7218,143.0528,216.1883,5.768611,0.0711373,0.57213117,271.9037,03/29.0/2026,2000,g 10.0,6.0
# From MPC191606
152P/Helin-Lawrence,e,9.8795,91.7768,164.3771,4.486338,0.1037208,0.30642315,159.4419,03/29.0/2026,2000,g 11.5,4.0
# From MPC191606
154P/Brewington,e,17.6407,342.9950,47.9039,4.792491,0.0939425,0.67611619,61.4312,03/29.0/2026,2000,g  2.5,12.0
# From MPC191607
156P/Russell-LINEAR,e,17.2558,35.3219,0.5335,3.462644,0.1529651,0.61468392,299.1779,03/29.0/2026,2000,g 15.5,2.0
# From MPC191607
157P/Tritton,e,12.4253,287.4955,155.2004,3.548442,0.1474509,0.55664791,191.0485,03/29.0/2026,2000,g 10.0,4.0
# From MPEC 2022-VC5
157P-B/Tritton,e,12.4273,153.8630,287.2436,3.102748,0.1803368,0.49979853,233.9549,03/29.0/2026,2000,g 15.7,4.0
# From MPC191607
158P/Kowal-LINEAR,e,7.5022,124.1461,234.7422,5.741470,0.0716423,0.11392378,89.6914,03/29.0/2026,2000,g  9.0,4.0
# From MPC191607
159P/LONEOS,e,23.4746,54.9351,4.7613,5.856586,0.0695404,0.38217139,199.1484,03/29.0/2026,2000,g 10.0,4.0
# From MPC191607
160P/LINEAR,e,15.5889,333.3121,12.7817,3.780806,0.1340688,0.52486748,309.8275,03/29.0/2026,2000,g 15.5,2.0
# From MPC191607
161P/Hartley-IRAS,e,95.7896,1.4772,47.0731,7.720810,0.0459420,0.83614421,348.8124,03/29.0/2026,2000,g  8.5,6.0
# From MPC191607
162P/SidingSpring,e,27.5522,30.8675,357.2512,3.091183,0.1813498,0.58283986,350.9605,03/29.0/2026,2000,g 12.0,4.0
# From MPC191607
163P/NEAT,e,12.7243,102.0672,349.6848,3.759541,0.1352078,0.45345254,327.5481,03/29.0/2026,2000,g 14.5,4.0
# From MPEC 2026-FC3
164P/Christensen,e,16.2756,88.2626,325.9028,3.650967,0.1412837,0.54138577,43.1861,03/29.0/2026,2000,g 11.0,4.0
# From MPC191608
165P/LINEAR,e,15.9151,0.5990,125.9880,17.81732,0.0131051,0.61957112,123.3311,03/29.0/2026,2000,g 11.5,2.0
# From MPC191608
166P/NEAT,e,15.3835,64.3459,321.9918,13.85382,0.0191139,0.38173027,166.3793,03/29.0/2026,2000,g  5.5,4.0
# From MPC191608
167P/CINEOS,e,19.0720,295.8454,344.2406,16.24085,0.0150588,0.26801309,137.6913,03/29.0/2026,2000,g  9.5,2.0
# From MPC191608
168P/Hergenrother,e,21.5951,355.3779,15.1029,3.585586,0.1451656,0.62102872,351.5359,03/29.0/2026,2000,g 15.5,4.0
# From MPC191608
169P/NEAT,e,11.2848,176.0375,218.1357,2.603674,0.2345980,0.76791667,318.6205,03/29.0/2026,2000,g 16.0,2.0
# From MPC191608
170P/Christensen,e,10.1367,142.6373,224.5130,4.189451,0.1149392,0.30562684,124.0313,03/29.0/2026,2000,g 12.0,4.0
# From MPEC 2026-E44
171P/Spahr,e,21.9547,101.6926,347.0456,3.552319,0.1472096,0.50279544,27.2379,03/29.0/2026,2000,g 13.5,4.0
# From MPC191608
172P/Yeung,e,11.2212,30.8770,208.8657,4.225189,0.1134841,0.20520581,16.6451,03/29.0/2026,2000,g 13.0,4.0
# From MPC191608
173P/Mueller,e,16.4936,100.3455,29.3768,5.717611,0.0720912,0.26245472,112.5514,03/29.0/2026,2000,g  7.5,4.0
# From MPEC 2026-FC3
175P/Hergenrother,e,4.9296,109.7953,74.5893,3.689342,0.1390851,0.37464749,338.0003,03/29.0/2026,2000,g 14.0,4.0
# From MPC191609
178P/Hug-Bell,e,11.0927,102.7839,297.9660,3.632588,0.1423574,0.48209614,296.0024,03/29.0/2026,2000,g 13.5,4.0
# From MPEC 2026-E43
179P/Jedicke,e,19.8890,115.5041,297.2577,5.938141,0.0681127,0.30502467,95.1883,03/29.0/2026,2000,g  2.5,8.0
# From MPC191609
180P/NEAT,e,16.8604,84.5505,94.5974,3.867187,0.1296019,0.35411463,128.3826,03/29.0/2026,2000,g 11.0,4.0
# From MPC191609
181P/Shoemaker-Levy,e,17.4685,35.4291,336.3000,3.879969,0.1289620,0.69943870,198.7719,03/29.0/2026,2000,g 11.5,4.0
# From MPC191609
182P/LONEOS,e,16.2296,72.4370,54.2438,2.948096,0.1947115,0.66408669,275.6190,03/29.0/2026,2000,g 18.0,4.0
# From MPEC 2026-FC3
183P/Korlevic-Juric,e,18.7224,3.2485,161.5089,4.721968,0.0960549,0.10359679,309.6673,03/29.0/2026,2000,g 12.5,2.0
# From MPC191609
184P/Lovas,e,4.5684,173.2220,186.5801,3.801947,0.1329520,0.54948589,263.4756,03/29.0/2026,2000,g 13.5,4.0
# From MPC191609
185P/Petriew,e,14.0034,214.1246,181.9245,3.100263,0.1805536,0.69912650,178.8220,03/29.0/2026,2000,g 15.0,4.0
# From MPC191609
186P/Garradd,e,28.7457,325.6715,267.3876,4.869372,0.0917265,0.12256643,246.6733,03/29.0/2026,2000,g  7.5,4.0
# From MPC191610
187P/LINEAR,e,13.6692,109.8480,132.1911,4.543735,0.1017618,0.15672654,290.8007,03/29.0/2026,2000,g  9.0,4.0
# From MPEC 2026-E43
188P/LINEAR-Mueller,e,10.5261,358.9109,26.8545,4.362890,0.1081540,0.41642700,358.3404,03/29.0/2026,2000,g 11.5,4.0
# From MPEC 2026-E44
190P/Mueller,e,2.1784,335.4018,50.4515,4.227539,0.1133894,0.52334399,52.1509,03/29.0/2026,2000,g 13.0,4.0
# From MPC191610
191P/McNaught,e,8.8394,98.1787,284.2502,3.641699,0.1418234,0.38480523,260.3059,03/29.0/2026,2000,g 13.0,4.0
# From MPC191610
192P/Shoemaker-Levy,e,24.5758,51.5063,313.0191,6.440834,0.0602963,0.77321376,40.6185,03/29.0/2026,2000,g 15.0,4.0
# From MPC191610
193P/LINEAR-NEAT,e,10.6771,335.1803,8.0827,3.580489,0.1454757,0.39240803,244.2894,03/29.0/2026,2000,g 14.0,4.0
# From MPC191610
194P/LINEAR,e,11.8032,349.4884,128.6718,4.124245,0.1176759,0.56339797,92.2087,03/29.0/2026,2000,g 16.0,4.0
# From MPEC 2026-FC3
195P/Hill,e,36.4151,243.0858,250.6826,6.439221,0.0603190,0.31035200,14.1632,03/29.0/2026,2000,g  8.5,4.0
# From MPC191610
196P/Tichy,e,19.2882,24.1253,12.1502,3.807333,0.1326700,0.42714368,165.4716,03/29.0/2026,2000,g 13.5,4.0
# From MPC191611
197P/LINEAR,e,25.1525,66.0710,190.0092,2.912451,0.1982970,0.61681623,240.3729,03/29.0/2026,2000,g 16.5,2.0
# From MPC191611
198P/ODAS,e,1.3393,358.3194,69.2982,3.633238,0.1423191,0.44818495,18.1944,03/29.0/2026,2000,g 12.5,4.0
# From MPC191611
199P/Shoemaker,e,24.9404,92.3405,191.7245,5.869829,0.0693052,0.50412429,66.8821,03/29.0/2026,2000,g 10.0,4.0
# From MPC191611
200P/Larsen,e,12.0952,234.7340,134.4315,4.955458,0.0893467,0.33062371,217.7544,03/29.0/2026,2000,g  9.0,4.0
# From MPC191611
201P/LONEOS,e,5.7332,19.6688,41.6656,3.354382,0.1604299,0.63737776,283.2618,03/29.0/2026,2000,g 14.0,4.0
# From MPC191611
202P/Scotti,e,2.1416,177.2995,274.5454,4.099696,0.1187344,0.25091428,80.8096,03/29.0/2026,2000,g 13.5,4.0
# From MPC191611
203P/Korlevic,e,2.9762,290.2201,154.9831,4.668394,0.0977131,0.31630115,216.1018,03/29.0/2026,2000,g 14.5,2.0
# From MPC191611
204P/LINEAR-NEAT,e,6.5983,108.4721,356.7539,3.584439,0.1452353,0.48828416,178.2629,03/29.0/2026,2000,g 14.0,4.0
# From MPC191611
205P/Giacobini,e,15.3002,179.6241,154.1276,3.543457,0.1477622,0.56718960,227.1317,03/29.0/2026,2000,g 13.0,4.0
# From MPC191612
207P/NEAT,e,10.1964,198.1050,273.0765,3.887240,0.1286003,0.75852682,101.2130,03/29.0/2026,2000,g 16.0,4.0
# From MPC191612
208P/McMillan,e,4.4005,36.1495,311.4004,4.055734,0.1206701,0.37485704,70.0162,03/29.0/2026,2000,g 12.5,4.0
# From MPC191612
209P/LINEAR,e,21.2870,62.7497,152.4743,2.957086,0.1938242,0.67419450,120.6492,03/29.0/2026,2000,g 17.0,2.0
# From MPEC 2026-FC3
210P/Christensen,e,10.2873,93.7964,345.9484,3.160101,0.1754497,0.83404796,22.1549,03/29.0/2026,2000,g 13.5,4.0
# From MPC191612
211P/Hill,e,18.9265,117.1001,4.3814,3.548715,0.1474339,0.34460203,187.2897,03/29.0/2026,2000,g 12.5,4.0
# From MPC191612
212P/NEAT,e,22.1488,97.9718,14.0916,3.904498,0.1277487,0.58674299,89.7801,03/29.0/2026,2000,g 17.0,2.0
# From MPC191612
213P/VanNess,e,10.7010,310.2857,7.8600,3.363331,0.1597900,0.41540477,136.8705,03/29.0/2026,2000,g 10.5,4.0
# From MPEC 2025-GB9
213P-B/Van Ness,e,10.6999,310.2836,7.8738,3.363095,0.1598069,0.41530170,136.9049,03/29.0/2026,2000,g 17.0,4.0
# From MPC191612
214P/LINEAR,e,15.1957,348.2254,190.1122,3.615612,0.1433611,0.48662807,183.3667,03/29.0/2026,2000,g 13.0,4.0
# From MPEC 2026-FC3
215P/NEAT,e,10.5756,56.6831,262.1148,4.337305,0.1091124,0.16483688,254.1078,03/29.0/2026,2000,g 11.0,4.0
# From MPC191612
216P/LINEAR,e,9.0625,359.7613,151.8038,3.860804,0.1299234,0.44916878,105.4740,03/29.0/2026,2000,g 13.0,4.0
# From MPEC 2026-FC3
217P/LINEAR,e,12.8705,125.3685,247.0137,3.946954,0.1256930,0.68954108,38.7107,03/29.0/2026,2000,g 12.0,4.0
# From MPEC 2026-EC7
218P/LINEAR,e,2.7267,174.7140,61.4150,3.059929,0.1841353,0.63091511,4.5467,03/29.0/2026,2000,g 16.0,4.0
# From MPC191613
219P/LINEAR,e,11.4109,230.0540,108.9423,3.660932,0.1407073,0.35884959,108.3245,03/29.0/2026,2000,g 11.0,4.0
# From MPC191613
220P/McNaught,e,8.1207,150.0840,180.5670,3.120835,0.1787713,0.50036068,346.2118,03/29.0/2026,2000,g 15.0,4.0
# From MPC191613
221P/LINEAR,e,10.3107,221.6663,46.8833,3.380906,0.1585457,0.52264250,243.3468,03/29.0/2026,2000,g 14.5,4.0
# From MPC191613
223P/Skiff,e,27.0069,346.6877,37.9903,4.158232,0.1162361,0.41606272,303.8710,03/29.0/2026,2000,g 12.0,4.0
# From MPC191613
224P/LINEAR-NEAT,e,13.2971,40.0363,16.8376,3.447987,0.1539415,0.40525370,196.4307,03/29.0/2026,2000,g 15.5,4.0
# From MPC191613
226P/Pigott-LINEAR-Kowalski,e,44.0410,54.0209,341.0404,3.765662,0.1348783,0.52860189,111.0215,03/29.0/2026,2000,g 12.5,4.0
